NORAD_CAT_ID,OBJECT_NAME,OBJECT_TYPE,EPOCH,MEAN_MOTION,ECCENTRICITY,INCLINATION,RA_OF_ASC_NODE,ARG_OF_PERICENTER,MEAN_ANOMALY,BSTAR,MEAN_MOTION_DOT,MEAN_MOTION_DDOT,TLE_LINE0,TLE_LINE1,TLE_LINE2,SEMIMAJOR_AXIS,PERIOD,APOGEE,PERIGEE,DECAYED
49133.0,STARLINK-3077,PAYLOAD,2023-03-18 12:51:15,14.98334873,0.0003218,70.0006,155.5578,270.5905,89.4885,0.00017613,2.009e-05,0.0,0 STARLINK-3077,1 49133U 21082D   23077.53559260  .00002009  00000-0  17613-3 0  9999,2 49133  70.0006 155.5578 0003218 270.5905  89.4885 14.98334873 83130,6950.178,96.107,574.279,569.806,0.0
49133.0,STARLINK-3077,PAYLOAD,2023-03-18 22:28:03,14.98333266,0.0003201,70.0006,154.5477,272.3773,87.7019,0.00012644,1.416e-05,0.0,0 STARLINK-3077,1 49133U 21082D   23077.93615452  .00001416  00000-0  12644-3 0  9999,2 49133  70.0006 154.5477 0003201 272.3773  87.7019 14.98333266 83193,6950.183,96.107,574.273,569.823,0.0
49133.0,STARLINK-3077,PAYLOAD,2023-03-19 04:52:36,14.98324725,0.0003171,70.0005,153.8744,268.8167,91.2629,0.00028342,3.29e-05,0.0,0 STARLINK-3077,1 49133U 21082D   23078.20319789  .00003290  00000-0  28342-3 0  9998,2 49133  70.0005 153.8744 0003171 268.8167  91.2629 14.98324725 83236,6950.209,96.107,574.278,569.87,0.0
49133.0,STARLINK-3077,PAYLOAD,2023-03-19 12:53:16,14.98332836,0.0003323,70.0,153.0329,267.9093,92.1685,0.00036598,4.277e-05,0.0,0 STARLINK-3077,1 49133U 21082D   23078.53699298  .00004277  00000-0  36598-3 0  9998,2 49133  70.0000 153.0329 0003323 267.9093  92.1685 14.98332836 83288,6950.184,96.107,574.359,569.74,0.0
49133.0,STARLINK-3077,PAYLOAD,2023-03-19 17:41:39,14.98340963,0.0003258,70.0001,152.5277,268.339,91.7396,0.0003829,4.48e-05,0.0,0 STARLINK-3077,1 49133U 21082D   23078.73726705  .00004480  00000-0  38290-3 0  9991,2 49133  70.0001 152.5277 0003258 268.3390  91.7396 14.98340963 83315,6950.159,96.106,574.288,569.76,0.0
49133.0,STARLINK-3077,PAYLOAD,2023-03-20 06:30:45,14.98331578,0.0003133,70.0007,151.1822,272.324,87.756,-1.9595e-05,-3.27e-06,0.0,0 STARLINK-3077,1 49133U 21082D   23079.27136085 -.00000327  00000-0 -19595-4 0  9993,2 49133  70.0007 151.1822 0003133 272.3240  87.7560 14.98331578 83391,6950.188,96.107,574.231,569.876,0.0
49133.0,STARLINK-3077,PAYLOAD,2023-03-20 12:55:17,14.98334545,0.0003113,70.0004,150.5078,270.5461,89.5342,-3.2044e-05,-4.75e-06,0.0,0 STARLINK-3077,1 49133U 21082D   23079.53839778 -.00000475  00000-0 -32044-4 0  9999,2 49133  70.0004 150.5078 0003113 270.5461  89.5342 14.98334545 83437,6950.179,96.107,574.207,569.88,0.0
49133.0,STARLINK-3077,PAYLOAD,2023-03-20 16:07:33,14.98338119,0.0003127,70.0005,150.1712,270.6308,89.4493,7.5667e-06,-3e-08,0.0,0 STARLINK-3077,1 49133U 21082D   23079.67191391 -.00000003  00000-0  75667-5 0  9991,2 49133  70.0005 150.1712 0003127 270.6308  89.4493 14.98338119 83454,6950.168,96.106,574.206,569.859,0.0
49133.0,STARLINK-3077,PAYLOAD,2023-03-20 22:32:05,14.9834085,0.0003248,70.0004,149.4984,271.6633,88.4154,-3.8114e-05,-5.48e-06,0.0,0 STARLINK-3077,1 49133U 21082D   23079.93895123 -.00000548  00000-0 -38114-4 0  9994,2 49133  70.0004 149.4984 0003248 271.6633  88.4154 14.98340850 83493,6950.159,96.106,574.282,569.767,0.0
49133.0,STARLINK-3077,PAYLOAD,2023-03-21 12:57:17,14.98341224,0.0003065,70.0004,147.9839,271.0699,89.0108,7.8268e-05,8.41e-06,0.0,0 STARLINK-3077,1 49133U 21082D   23080.53978791  .00000841  00000-0  78268-4 0  9993,2 49133  70.0004 147.9839 0003065 271.0699  89.0108 14.98341224 83580,6950.158,96.106,574.153,569.893,0.0
49133.0,STARLINK-3077,PAYLOAD,2023-03-22 04:58:38,14.98330545,0.0003102,70.0009,146.3023,272.951,87.1294,0.00013082,1.468e-05,0.0,0 STARLINK-3077,1 49133U 21082D   23081.20739218  .00001468  00000-0  13082-3 0  9995,2 49133  70.0009 146.3023 0003102 272.9510  87.1294 14.98330545 83687,6950.191,96.107,574.212,569.9,0.0
49133.0,STARLINK-3077,PAYLOAD,2023-03-22 14:35:27,14.98330913,0.0002813,70.0007,145.2924,269.3215,90.7621,0.00013969,1.574e-05,0.0,0 STARLINK-3077,1 49133U 21082D   23081.60795282  .00001574  00000-0  13969-3 0  9994,2 49133  70.0007 145.2924 0002813 269.3215  90.7621 14.98330913 83743,6950.19,96.107,574.01,570.1,0.0
49133.0,STARLINK-3077,PAYLOAD,2023-03-23 05:00:39,14.98337824,0.000285,70.0003,143.7762,267.2086,92.8747,9.6279e-05,1.056e-05,0.0,0 STARLINK-3077,1 49133U 21082D   23082.20878785  .00001056  00000-0  96279-4 0  9992,2 49133  70.0003 143.7762 0002850 267.2086  92.8747 14.98337824 83836,6950.169,96.106,574.014,570.053,0.0
49133.0,STARLINK-3077,PAYLOAD,2023-03-23 13:01:19,14.9833828,0.0002869,70.0003,142.9345,266.277,93.8061,8.25e-05,8.92e-06,0.0,0 STARLINK-3077,1 49133U 21082D   23082.54258595  .00000892  00000-0  82500-4 0  9999,2 49133  70.0003 142.9345 0002869 266.2770  93.8061 14.98338280 83885,6950.167,96.106,574.026,570.038,0.0
49133.0,STARLINK-3077,PAYLOAD,2023-03-23 21:01:59,14.98339543,0.000297,70.0002,142.0931,268.2255,91.8564,0.00016223,1.844e-05,0.0,0 STARLINK-3077,1 49133U 21082D   23082.87638237  .00001844  00000-0  16223-3 0  9996,2 49133  70.0002 142.0931 0002970 268.2255  91.8564 14.98339543 83934,6950.163,96.106,574.093,569.964,0.0
49133.0,STARLINK-3077,PAYLOAD,2023-03-24 05:02:39,14.98349766,0.0003008,70.0001,141.2517,267.5414,92.5401,0.00028354,3.293e-05,0.0,0 STARLINK-3077,1 49133U 21082D   23083.21017496  .00003293  00000-0  28354-3 0  9991,2 49133  70.0001 141.2517 0003008 267.5414  92.5401 14.98349766 83987,6950.132,96.106,574.087,569.906,0.0
49133.0,STARLINK-3077,PAYLOAD,2023-03-24 11:27:11,14.9834579,0.0002909,70.0011,140.5781,268.3069,91.7757,0.00048532,5.705e-05,0.0,0 STARLINK-3077,1 49133U 21082D   23083.47721757  .00005705  00000-0  48532-3 0  9991,2 49133  70.0011 140.5781 0002909 268.3069  91.7757 14.98345790 84021,6950.144,96.106,574.031,569.987,0.0
49133.0,STARLINK-3077,PAYLOAD,2023-03-24 13:03:19,14.98353681,0.0002874,70.0012,140.4102,268.2609,91.8221,0.00042841,5.025e-05,0.0,0 STARLINK-3077,1 49133U 21082D   23083.54397270  .00005025  00000-0  42841-3 0  9990,2 49133  70.0012 140.4102 0002874 268.2609  91.8221 14.98353681 84034,6950.12,96.105,573.982,569.987,0.0
49133.0,STARLINK-3077,PAYLOAD,2023-03-24 21:03:59,14.98343025,0.0002496,70.0017,139.5695,281.2338,78.854,0.00014538,1.643e-05,0.0,0 STARLINK-3077,1 49133U 21082D   23083.87777722  .00001643  00000-0  14538-3 0  9994,2 49133  70.0017 139.5695 0002496 281.2338  78.8540 14.98343025 84084,6950.153,96.106,573.752,570.283,0.0
49133.0,STARLINK-3077,PAYLOAD,2023-03-25 05:04:47,14.9818816,0.0003201,70.0008,138.7271,276.233,83.8464,-0.0027558,-0.00032702,0.0,0 STARLINK-3077,1 49133U 21082D   23084.21166000 -.00032702  00000-0 -27558-2 0  9991,2 49133  70.0008 138.7271 0003201 276.2330  83.8464 14.98188160 84130,6950.632,96.116,574.721,570.272,0.0
49133.0,STARLINK-3077,PAYLOAD,2023-03-25 11:29:23,14.9808061,0.000297,70.0009,138.054,245.8011,114.2838,-0.0057983,-0.00068168,0.0,0 STARLINK-3077,1 49133U 21082D   23084.47874743 -.00068168  00000-0 -57983-2 0  9999,2 49133  70.0009 138.0540 0002970 245.8011 114.2838 14.98080610 84172,6950.964,96.123,574.894,570.765,0.0
49133.0,STARLINK-3077,PAYLOAD,2023-03-25 21:06:26,14.97877828,0.0002497,70.0013,137.0452,286.1328,73.9556,-0.0087584,-0.00101891,0.0,0 STARLINK-3077,1 49133U 21082D   23084.87947606 -.00101891  00000-0 -87584-2 0  9993,2 49133  70.0013 137.0452 0002497 286.1328  73.9556 14.97877828 84230,6951.592,96.136,575.192,571.721,0.0
49133.0,STARLINK-3077,PAYLOAD,2023-03-26 05:07:18,14.97794112,0.0002556,70.0015,136.205,266.0145,94.0722,-0.0084584,-0.00098243,0.0,0 STARLINK-3077,1 49133U 21082D   23085.21341009 -.00098243  00000-0 -84584-2 0  9990,2 49133  70.0015 136.2050 0002556 266.0145  94.0722 14.97794112 84285,6951.851,96.141,575.492,571.939,0.0
49133.0,STARLINK-3077,PAYLOAD,2023-03-26 11:31:55,14.97877799,0.0002901,70.0024,135.5325,254.0023,106.0816,-0.0042878,-0.00050298,0.0,0 STARLINK-3077,1 49133U 21082D   23085.48050172 -.00050298  00000-0 -42878-2 0  9995,2 49133  70.0024 135.5325 0002901 254.0023 106.0816 14.97877799 84324,6951.592,96.136,575.473,571.44,0.0
49133.0,STARLINK-3077,PAYLOAD,2023-03-26 13:08:03,14.97936327,0.0002492,70.0022,135.3644,296.1958,63.8945,-0.0021916,-0.00025881,0.0,0 STARLINK-3077,1 49133U 21082D   23085.54726568 -.00025881  00000-0 -21916-2 0  9991,2 49133  70.0022 135.3644 0002492 296.1958  63.8945 14.97936327 84330,6951.411,96.132,575.008,571.543,0.0
49133.0,STARLINK-3077,PAYLOAD,2023-03-26 21:08:47,14.98043621,0.0002956,70.0032,134.5235,285.4096,74.6736,0.0020854,0.00024694,0.0,0 STARLINK-3077,1 49133U 21082D   23085.88110727  .00024694  00000-0  20854-2 0  9991,2 49133  70.0032 134.5235 0002956 285.4096  74.6736 14.98043621 84387,6951.079,96.125,574.998,570.889,0.0
49133.0,STARLINK-3077,PAYLOAD,2023-03-27 05:09:26,14.98167274,0.0003261,70.0033,133.6807,283.0181,77.0614,0.0033761,0.00040253,0.0,0 STARLINK-3077,1 49133U 21082D   23086.21489374  .00040253  00000-0  33761-2 0  9996,2 49133  70.0033 133.6807 0003261 283.0181  77.0614 14.98167274 84431,6950.696,96.117,574.828,570.295,0.0
49133.0,STARLINK-3077,PAYLOAD,2023-03-27 13:10:12,14.98163126,0.0002851,70.001,132.8387,275.6087,84.4746,0.0042181,0.00050382,0.0,0 STARLINK-3077,1 49133U 21082D   23086.54875007  .00050382  00000-0  42181-2 0  9994,2 49133  70.0010 132.8387 0002851 275.6087  84.4746 14.98163126 84481,6950.709,96.118,574.556,570.592,0.0
49133.0,STARLINK-3077,PAYLOAD,2023-03-28 05:11:40,14.98175761,0.0002723,70.0008,131.1542,280.0831,80.0021,0.0057355,0.00068742,0.0,0 STARLINK-3077,1 49133U 21082D   23087.21643943  .00068742  00000-0  57355-2 0  9999,2 49133  70.0008 131.1542 0002723 280.0831  80.0021 14.98175761 84585,6950.67,96.117,574.428,570.642,0.0
49133.0,STARLINK-3077,PAYLOAD,2023-03-28 13:12:20,14.98227911,0.0002704,70.0007,130.3117,275.8571,84.2279,0.0046428,0.00055598,0.0,0 STARLINK-3077,1 49133U 21082D   23087.55023828  .00055598  00000-0  46428-2 0  9994,2 49133  70.0007 130.3117 0002704 275.8571  84.2279 14.98227911 84637,6950.509,96.114,574.253,570.494,0.0
